COMMENT,ORIGINATOR,NORAD_CAT_ID,OBJECT_NAME,OBJECT_TYPE,CLASSIFICATION_TYPE,INTLDES,EPOCH,EPOCH_MICROSECONDS,MEAN_MOTION,ECCENTRICITY,INCLINATION,RA_OF_ASC_NODE,ARG_OF_PERICENTER,MEAN_ANOMALY,EPHEMERIS_TYPE,ELEMENT_SET_NO,REV_AT_EPOCH,BSTAR,MEAN_MOTION_DOT,MEAN_MOTION_DDOT,FILE,TLE_LINE0,TLE_LINE1,TLE_LINE2,OBJECT_ID,OBJECT_NUMBER,SEMIMAJOR_AXIS,PERIOD,APOGEE,PERIGEE,DECAYED
"GENERATED VIA SPACETRACK.ORG API","18 SPCS","48899","SPACEBEE-110","PAYLOAD","U","21059W","2022-09-19 08:45:24","868224","15.17875652","0.0009872","97.5684","32.0433","133.632","226.5733","0","999","6818","0.00056383","0.00011377","0","3577889","0 SPACEBEE-110","1 48899U 21059W   22262.36487116  .00011377  00000-0  56383-3 0  9992","2 48899  97.5684  32.0433 0009872 133.6320 226.5733 15.17875652 68186","2021-059W","48899","6890.399","94.869","519.066","505.462","0"
"GENERATED VIA SPACETRACK.ORG API","18 SPCS","48899","SPACEBEE-110","PAYLOAD","U","21059W","2022-09-19 15:05:07","997856","15.17880098","0.0009886","97.5684","32.3069","132.7934","227.4132","0","999","6822","0.00052653","0.0001062","0","3578162","0 SPACEBEE-110","1 48899U 21059W   22262.62856479  .00010620  00000-0  52653-3 0  9999","2 48899  97.5684  32.3069 0009886 132.7934 227.4132 15.17880098 68228","2021-059W","48899","6890.386","94.869","519.062","505.439","0"
"GENERATED VIA SPACETRACK.ORG API","18 SPCS","48899","SPACEBEE-110","PAYLOAD","U","21059W","2022-09-20 08:29:21","22656","15.17898757","0.0009941","97.5685","33.032","130.3818","229.8285","0","999","6833","0.00053799","0.00010859","0","3578736","0 SPACEBEE-110","1 48899U 21059W   22263.35371554  .00010859  00000-0  53799-3 0  9992","2 48899  97.5685  33.0320 0009941 130.3818 229.8285 15.17898757 68332","2021-059W","48899","6890.329","94.868","519.044","505.345","0"
"GENERATED VIA SPACETRACK.ORG API","18 SPCS","48899","SPACEBEE-110","PAYLOAD","U","21059W","2022-09-20 14:49:03","805824","15.17902621","0.0009938","97.5685","33.2956","129.612","230.5993","0","999","6837","0.0004873","0.00009829","0","3578908","0 SPACEBEE-110","1 48899U 21059W   22263.61740516  .00009829  00000-0  48730-3 0  9993","2 48899  97.5685  33.2956 0009938 129.6120 230.5993 15.17902621 68377","2021-059W","48899","6890.317","94.868","519.030","505.335","0"
"GENERATED VIA SPACETRACK.ORG API","18 SPCS","48899","SPACEBEE-110","PAYLOAD","U","21059W","2022-09-20 14:49:03","805824","15.17902621","0.0009938","97.5685","33.2956","129.612","230.5993","0","999","6837","0.0004873","0.00009829","0","3578945","0 SPACEBEE-110","1 48899U 21059W   22263.61740516  .00009829  00000-0  48730-3 0  9993","2 48899  97.5685  33.2956 0009938 129.6120 230.5993 15.17902621 68377","2021-059W","48899","6890.317","94.868","519.030","505.335","0"
"GENERATED VIA SPACETRACK.ORG API","18 SPCS","48899","SPACEBEE-110","PAYLOAD","U","21059W","2022-09-21 14:32:58","428384","15.17923162","0.0009935","97.5685","34.2841","126.6879","233.5269","0","999","6852","0.00046094","0.00009299","0","3579752","0 SPACEBEE-110","1 48899U 21059W   22264.60623181  .00009299  00000-0  46094-3 0  9993","2 48899  97.5685  34.2841 0009935 126.6879 233.5269 15.17923162 68525","2021-059W","48899","6890.255","94.866","518.966","505.275","0"
"GENERATED VIA SPACETRACK.ORG API","18 SPCS","48899","SPACEBEE-110","PAYLOAD","U","21059W","2022-09-22 14:16:52","19328","15.17941964","0.0009909","97.5686","35.2727","123.745","236.4729","0","999","6867","0.0004747","0.00009584","0","3580347","0 SPACEBEE-110","1 48899U 21059W   22265.59504652  .00009584  00000-0  47470-3 0  9999","2 48899  97.5686  35.2727 0009909 123.7450 236.4729 15.17941964 68673","2021-059W","48899","6890.198","94.865","518.891","505.236","0"
"GENERATED VIA SPACETRACK.ORG API","18 SPCS","48899","SPACEBEE-110","PAYLOAD","U","21059W","2022-09-22 14:16:52","19328","15.17941964","0.0009909","97.5686","35.2727","123.745","236.4729","0","999","6867","0.0004747","0.00009584","0","3580547","0 SPACEBEE-110","1 48899U 21059W   22265.59504652  .00009584  00000-0  47470-3 0  9999","2 48899  97.5686  35.2727 0009909 123.7450 236.4729 15.17941964 68673","2021-059W","48899","6890.198","94.865","518.891","505.236","0"
"GENERATED VIA SPACETRACK.ORG API","18 SPCS","48899","SPACEBEE-110","PAYLOAD","U","21059W","2022-09-23 07:41:02","662944","15.17957613","0.0009905","97.5688","35.9977","121.5346","238.6857","0","999","6878","0.00055302","0.00011184","0","3581351","0 SPACEBEE-110","1 48899U 21059W   22266.32016971  .00011184  00000-0  55302-3 0  9995","2 48899  97.5688  35.9977 0009905 121.5346 238.6857 15.17957613 68781","2021-059W","48899","6890.151","94.864","518.841","505.191","0"
"GENERATED VIA SPACETRACK.ORG API","18 SPCS","48899","SPACEBEE-110","PAYLOAD","U","21059W","2022-09-23 20:20:26","354400","15.17970437","0.0009898","97.569","36.525","119.8651","240.3568","0","999","6886","0.00063186","0.00012796","0","3581621","0 SPACEBEE-110","1 48899U 21059W   22266.84752725  .00012796  00000-0  63186-3 0  9995","2 48899  97.5690  36.5250 0009898 119.8651 240.3568 15.17970437 68862","2021-059W","48899","6890.112","94.864","518.797","505.157","0"
"GENERATED VIA SPACETRACK.ORG API","18 SPCS","48899","SPACEBEE-110","PAYLOAD","U","21059W","2022-09-24 07:24:54","264096","15.17980822","0.0009933","97.5693","36.9864","118.3724","241.8512","0","999","6893","0.00060469","0.00012245","0","3582188","0 SPACEBEE-110","1 48899U 21059W   22267.30896139  .00012245  00000-0  60469-3 0  9995","2 48899  97.5693  36.9864 0009933 118.3724 241.8512 15.17980822 68937","2021-059W","48899","6890.081","94.863","518.790","505.102","0"
"GENERATED VIA SPACETRACK.ORG API","18 SPCS","48899","SPACEBEE-110","PAYLOAD","U","21059W","2022-09-24 20:04:17","142528","15.17997414","0.0009965","97.5695","37.5137","116.6169","243.6087","0","999","6901","0.00070426","0.00014284","0","3582616","0 SPACEBEE-110","1 48899U 21059W   22267.83630952  .00014284  00000-0  70426-3 0  9991","2 48899  97.5695  37.5137 0009965 116.6169 243.6087 15.17997414 69010","2021-059W","48899","6890.031","94.862","518.762","505.030","0"
"GENERATED VIA SPACETRACK.ORG API","18 SPCS","48899","SPACEBEE-110","PAYLOAD","U","21059W","2022-09-24 21:39:12","472416","15.17999211","0.0009972","97.5696","37.5795","116.4095","243.8163","0","999","6902","0.00070181","0.00014234","0","3582970","0 SPACEBEE-110","1 48899U 21059W   22267.90222769  .00014234  00000-0  70181-3 0  9995","2 48899  97.5696  37.5795 0009972 116.4095 243.8163 15.17999211 69020","2021-059W","48899","6890.025","94.862","518.761","505.019","0"
"GENERATED VIA SPACETRACK.ORG API","18 SPCS","48899","SPACEBEE-110","PAYLOAD","U","21059W","2022-09-25 08:43:39","630432","15.1800967","0.0010007","97.5699","38.041","114.6198","245.6079","0","999","6909","0.000618","0.00012527","0","3583351","0 SPACEBEE-110","1 48899U 21059W   22268.36365313  .00012527  00000-0  61800-3 0  9990","2 48899  97.5699  38.0410 0010007 114.6198 245.6079 15.18009670 69093","2021-059W","48899","6889.994","94.861","518.753","504.964","0"
"GENERATED VIA SPACETRACK.ORG API","18 SPCS","48899","SPACEBEE-110","PAYLOAD","U","21059W","2022-09-26 06:52:33","82464","15.18029281","0.0010005","97.5702","38.9643","111.2452","248.9851","0","999","6923","0.00050119","0.00010149","0","3584149","0 SPACEBEE-110","1 48899U 21059W   22269.28649401  .00010149  00000-0  50119-3 0  9994","2 48899  97.5702  38.9643 0010005 111.2452 248.9851 15.18029281 69239","2021-059W","48899","6889.934","94.860","518.693","504.906","0"
"GENERATED VIA SPACETRACK.ORG API","18 SPCS","48899","SPACEBEE-110","PAYLOAD","U","21059W","2022-09-26 08:27:28","290528","15.18030179","0.0010005","97.5702","39.0302","111.0246","249.2059","0","999","6924","0.00047541","0.00009623","0","3584345","0 SPACEBEE-110","1 48899U 21059W   22269.35241077  .00009623  00000-0  47541-3 0  9999","2 48899  97.5702  39.0302 0010005 111.0246 249.2059 15.18030179 69245","2021-059W","48899","6889.932","94.860","518.690","504.903","0"
"GENERATED VIA SPACETRACK.ORG API","18 SPCS","48899","SPACEBEE-110","PAYLOAD","U","21059W","2022-09-26 14:47:09","47616","15.18035388","0.0010085","97.5704","39.2939","111.1145","249.1167","0","999","6928","0.00048502","0.00009821","0","3584555","0 SPACEBEE-110","1 48899U 21059W   22269.61607694  .00009821  00000-0  48502-3 0  9997","2 48899  97.5704  39.2939 0010085 111.1145 249.1167 15.18035388 69282","2021-059W","48899","6889.916","94.859","518.729","504.832","0"
"GENERATED VIA SPACETRACK.ORG API","18 SPCS","48899","SPACEBEE-110","PAYLOAD","U","21059W","2022-09-27 08:11:15","705600","15.18056325","0.0010052","97.5705","40.0193","108.8933","251.3391","0","999","6939","0.00068153","0.00013843","0","3585035","0 SPACEBEE-110","1 48899U 21059W   22270.34115400  .00013843  00000-0  68153-3 0  9991","2 48899  97.5705  40.0193 0010052 108.8933 251.3391 15.18056325 69397","2021-059W","48899","6889.852","94.858","518.643","504.792","0"
"GENERATED VIA SPACETRACK.ORG API","18 SPCS","48899","SPACEBEE-110","PAYLOAD","U","21059W","2022-09-27 08:11:15","705600","15.18056325","0.0010052","97.5705","40.0193","108.8933","251.3391","0","999","6939","0.00068153","0.00013843","0","3585092","0 SPACEBEE-110","1 48899U 21059W   22270.34115400  .00013843  00000-0  68153-3 0  9991","2 48899  97.5705  40.0193 0010052 108.8933 251.3391 15.18056325 69397","2021-059W","48899","6889.852","94.858","518.643","504.792","0"
"GENERATED VIA SPACETRACK.ORG API","18 SPCS","48899","SPACEBEE-110","PAYLOAD","U","21059W","2022-09-28 07:55:01","583616","15.18083544","0.0010024","97.5708","41.0086","105.9006","254.3333","0","999","6954","0.00068746","0.00013976","0","3586039","0 SPACEBEE-110","1 48899U 21059W   22271.32987944  .00013976  00000-0  68746-3 0  9995","2 48899  97.5708  41.0086 0010024 105.9006 254.3333 15.18083544 69549","2021-059W","48899","6889.770","94.856","518.541","504.729","0"
